NORAD_CAT_ID,OBJECT_NAME,OBJECT_TYPE,EPOCH,MEAN_MOTION,ECCENTRICITY,INCLINATION,RA_OF_ASC_NODE,ARG_OF_PERICENTER,MEAN_ANOMALY,BSTAR,MEAN_MOTION_DOT,MEAN_MOTION_DDOT,TLE_LINE0,TLE_LINE1,TLE_LINE2,SEMIMAJOR_AXIS,PERIOD,APOGEE,PERIGEE,DECAYED
54101.0,STARLINK-5204,PAYLOAD,2022-12-22 06:31:52,15.73199296,0.0003892,53.2146,197.7672,12.6029,347.5087,-3.4214e-05,-5.425e-05,0.0,0 STARLINK-5204,1 54101U 22136BC  22356.27213564 -.00005425  00000-0 -34214-4 0  9999,2 54101  53.2146 197.7672 0003892  12.6029 347.5087 15.73199296  9897,6727.897,91.533,352.381,347.144,0.0
54101.0,STARLINK-5204,PAYLOAD,2022-12-22 14:09:15,15.73202752,0.0003437,53.2153,196.1939,10.6894,349.4198,2.9495e-06,-2.1e-06,0.0,0 STARLINK-5204,1 54101U 22136BC  22356.58976458 -.00000210  00000-0  29495-5 0  9993,2 54101  53.2153 196.1939 0003437  10.6894 349.4198 15.73202752 10413,6727.887,91.533,352.065,347.44,0.0
54101.0,STARLINK-5204,PAYLOAD,2022-12-22 17:12:12,15.73221162,0.0003345,53.2154,195.5699,26.4423,333.6767,1.3821e-05,1.318e-05,0.0,0 STARLINK-5204,1 54101U 22136BC  22356.71681161  .00001318  00000-0  13821-4 0  9996,2 54101  53.2154 195.5699 0003345  26.4423 333.6767 15.73221162  9962,6727.835,91.532,351.95,347.449,0.0
54101.0,STARLINK-5204,PAYLOAD,2022-12-22 23:18:07,15.73218659,0.0003309,53.2159,194.3097,22.0137,338.1024,2.3303e-05,2.651e-05,0.0,0 STARLINK-5204,1 54101U 22136BC  22356.97092005  .00002651  00000-0  23303-4 0  9994,2 54101  53.2159 194.3097 0003309  22.0137 338.1024 15.73218659 10471,6727.842,91.532,351.93300000000005,347.481,0.0
54101.0,STARLINK-5204,PAYLOAD,2022-12-23 13:01:29,15.73178818,0.0003509,53.2156,191.4808,15.7913,344.3216,3.8032e-05,4.714e-05,0.0,0 STARLINK-5204,1 54101U 22136BC  22357.54269867  .00004714  00000-0  38032-4 0  9997,2 54101  53.2156 191.4808 0003509  15.7913 344.3216 15.73178818 10563,6727.956,91.534,352.181,347.46,0.0
54101.0,STARLINK-5204,PAYLOAD,2022-12-23 23:41:48,15.73224295,0.0003456,53.2157,189.2796,12.1329,347.9774,6.1801e-05,8.069e-05,0.0,0 STARLINK-5204,1 54101U 22136BC  22357.98736293  .00008069  00000-0  61801-4 0  9994,2 54101  53.2157 189.2796 0003456  12.1329 347.9774 15.73224295 10635,6727.826,91.532,352.016,347.366,0.0
54101.0,STARLINK-5204,PAYLOAD,2022-12-24 13:25:07,15.73233273,0.0003406,53.2151,186.4537,19.5386,340.5764,1.3005e-05,1.205e-05,0.0,0 STARLINK-5204,1 54101U 22136BC  22358.55911651  .00001205  00000-0  13005-4 0  9999,2 54101  53.2151 186.4537 0003406  19.5386 340.5764 15.73233273 10724,6727.8,91.531,351.957,347.374,0.0
54101.0,STARLINK-5204,PAYLOAD,2022-12-24 21:02:28,15.73271506,0.0003488,53.2148,184.8787,15.3108,344.8017,4.209600000000001e-05,5.307e-05,0.0,0 STARLINK-5204,1 54101U 22136BC  22358.87672368  .00005307  00000-0  42096-4 0  9992,2 54101  53.2148 184.8787 0003488  15.3108 344.8017 15.73271506 10779,6727.691,91.529,351.903,347.21,0.0
54101.0,STARLINK-5204,PAYLOAD,2022-12-25 19:54:45,15.73200797,0.0003882,53.2147,180.1622,6.8644,353.2429,-2.2102e-05,-3.726e-05,0.0,0 STARLINK-5204,1 54101U 22136BC  22359.82969749 -.00003726  00000-0 -22102-4 0  9991,2 54101  53.2147 180.1622 0003882   6.8644 353.2429 15.73200797 10925,6727.893,91.533,352.37,347.146,0.0
54101.0,STARLINK-5204,PAYLOAD,2022-12-25 21:26:17,15.73161325,0.000366,53.2148,179.8489,12.3767,347.7343,-9.165e-05,-0.00013449,0.0,0 STARLINK-5204,1 54101U 22136BC  22359.89326076 -.00013449  00000-0 -91650-4 0  9995,2 54101  53.2148 179.8489 0003660  12.3767 347.7343 15.73161325 10931,6728.005,91.535,352.333,347.408,0.0
54101.0,STARLINK-5204,PAYLOAD,2022-12-26 12:41:01,15.73218989,0.0003814,53.2144,176.7044,2.8894,357.2148,-7.8551e-06,-1.728e-05,0.0,0 STARLINK-5204,1 54101U 22136BC  22360.52848643 -.00001728  00000-0 -78551-5 0  9999,2 54101  53.2144 176.7044 0003814   2.8894 357.2148 15.73218989 10563,6727.840999999999,91.532,352.272,347.14,0.0
54101.0,STARLINK-5204,PAYLOAD,2022-12-26 14:12:29,15.732247400000002,0.0003892,53.2143,176.3902,3.1263,356.978,1.8133e-06,-3.700000000000001e-06,0.0,0 STARLINK-5204,1 54101U 22136BC  22360.59200865 -.00000370  00000-0  18133-5 0  9995,2 54101  53.2143 176.3902 0003892   3.1263 356.9780 15.73224740 11045,6727.825,91.532,352.30800000000005,347.071,0.0
54101.0,STARLINK-5204,PAYLOAD,2022-12-27 11:33:11,15.73222771,0.0003796,53.2155,171.9898,9.4792,350.6299,4.5365e-05,5.755e-05,0.0,0 STARLINK-5204,1 54101U 22136BC  22361.48138604  .00005755  00000-0  45365-4 0  9992,2 54101  53.2155 171.9898 0003796   9.4792 350.6299 15.73222771 10713,6727.83,91.532,352.249,347.141,0.0
54101.0,STARLINK-5204,PAYLOAD,2022-12-27 22:13:33,15.73220833,0.0003978,53.2156,169.7881,7.8439,352.2643,3.7638e-05,4.667e-05,0.0,0 STARLINK-5204,1 54101U 22136BC  22361.92608128  .00004667  00000-0  37638-4 0  9999,2 54101  53.2156 169.7881 0003978   7.8439 352.2643 15.73220833 11251,6727.8359999999975,91.532,352.37699999999984,347.024,0.0
54101.0,STARLINK-5204,PAYLOAD,2022-12-28 11:56:52,15.73220302,0.0003666999999999,53.2146,166.9573,4.785,355.3205,9.3753e-06,6.93e-06,0.0,0 STARLINK-5204,1 54101U 22136BC  22362.49783253  .00000693  00000-0  93753-5 0  9991,2 54101  53.2146 166.9573 0003667   4.7850 355.3205 15.73220302 10871,6727.837,91.532,352.1690000000001,347.235,0.0
54101.0,STARLINK-5204,PAYLOAD,2022-12-28 13:28:22,15.73207681,0.0003996,53.2162,166.6446,355.4033,4.695,9.3863e-07,-4.93e-06,0.0,0 STARLINK-5204,1 54101U 22136BC  22362.56136885 -.00000493  00000-0  93863-6 0  9994,2 54101  53.2162 166.6446 0003996 355.4033   4.6950 15.73207681 11359,6727.873000000001,91.533,352.427,347.05,0.0
54101.0,STARLINK-5204,PAYLOAD,2022-12-29 10:49:08,15.73176745,0.0004088999999999,53.2127,162.2421,8.7891,351.32,-3.2699e-05,-5.209e-05,0.0,0 STARLINK-5204,1 54101U 22136BC  22363.45079209 -.00005209  00000-0 -32699-4 0  9998,2 54101  53.2127 162.2421 0004089   8.7891 351.3200 15.73176745 11490,6727.9609999999975,91.535,352.57800000000015,347.075,0.0
54101.0,STARLINK-5204,PAYLOAD,2022-12-29 19:58:15,15.73006137,0.0004803,53.2156,160.3568,0.7407,359.3619,-0.0002044999999999,-0.00029009,0.0,0 STARLINK-5204,1 54101U 22136BC  22363.83212350 -.00029009  00000-0 -20450-3 0  9991,2 54101  53.2156 160.3568 0004803   0.7407 359.3619 15.73006137 11558,6728.448,91.544,353.545,347.081,0.0
54101.0,STARLINK-5204,PAYLOAD,2022-12-30 03:36:13,15.72599456,0.0003762,53.2156,158.7875,0.7568,359.3457,-0.00057637,-0.0007876,0.0,0 STARLINK-5204,1 54101U 22136BC  22364.15015640 -.00078760  00000-0 -57637-3 0  9995,2 54101  53.2156 158.7875 0003762   0.7568 359.3457 15.72599456 11607,6729.608,91.568,354.005,348.941,0.0
54101.0,STARLINK-5204,PAYLOAD,2022-12-30 11:14:18,15.72135128,0.0005989,53.2148,157.2186,313.659,46.3933,-0.00092788,-0.00123401,0.0,0 STARLINK-5204,1 54101U 22136BC  22364.46827493 -.00123401  00000-0 -92788-3 0  9995,2 54101  53.2148 157.2186 0005989 313.6590  46.3933 15.72135128 11650,6730.933000000001,91.595,356.829,348.767,0.0
54101.0,STARLINK-5204,PAYLOAD,2022-12-30 20:24:04,15.71656544,0.0004574,53.2147,155.3371,291.0388,69.0143,-0.0013291,-0.00171884,0.0,0 STARLINK-5204,1 54101U 22136BC  22364.85005582 -.00171884  00000-0 -13291-2 0  9994,2 54101  53.2147 155.3371 0004574 291.0388  69.0143 15.71656544 11718,6732.299,91.623,357.244,351.085,0.0
54101.0,STARLINK-5204,PAYLOAD,2022-12-31 08:00:01,15.69633317,0.0005256,53.2171,152.941,268.5665,307.8068,-0.0082413,-0.00896158,0.0,0 STARLINK-5204,1 54101U 22136BC  22365.33334491 -.00896158  00000-0 -82413-2 0  9992,2 54101  53.2171 152.9410 0005256 268.5665 307.8068 15.69633317 11783,6738.083000000001,91.741,363.49,356.407,0.0
54101.0,STARLINK-5204,PAYLOAD,2022-12-31 14:00:01,15.69146359,0.000516,53.217,151.7123,269.0696,280.5621,-0.0084383,-0.00898756,0.0,0 STARLINK-5204,1 54101U 22136BC  22365.58334491 -.00898756  00000-0 -84383-2 0  9993,2 54101  53.2170 151.7123 0005160 269.0696 280.5621 15.69146359  1308,6739.477,91.77,364.82,357.865,0.0
54101.0,STARLINK-5204,PAYLOAD,2022-12-31 22:00:00,15.68505069,0.0003038,53.2167,150.0749,280.0514,353.2339,-0.0087374,-0.00918384,0.0,0 STARLINK-5204,1 54101U 22136BC  22365.91667824 -.00918384  00000-0 -87374-2 0  9992,2 54101  53.2167 150.0749 0003038 280.0514 353.2339 15.68505069  1304,6741.314,91.807,365.227,361.131,0.0
54101.0,STARLINK-5204,PAYLOAD,2023-01-01 00:00:00,15.68334084,0.0002511,53.2169,149.6641,285.1899,98.8949,-0.0087158,-0.00910228,0.0,0 STARLINK-5204,1 54101U 22136BC  23001.00001157 -.00910228  00000-0 -87158-2 0  9990,2 54101  53.2169 149.6641 0002511 285.1899  98.8949 15.68334084 11899,6741.804,91.817,365.362,361.976,0.0
54101.0,STARLINK-5204,PAYLOAD,2023-01-01 14:00:01,15.67206813,0.0001143,53.217,146.8004,43.5601,34.703,-0.0093357999999999,-0.00928566,0.0,0 STARLINK-5204,1 54101U 22136BC  23001.58334491 -.00928566  00000-0 -93358-2 0  9996,2 54101  53.2170 146.8004 0001143  43.5601  34.7030 15.67206813  1302,6745.036,91.883,367.672,366.13,0.0
54101.0,STARLINK-5204,PAYLOAD,2023-01-02 00:00:00,15.66383077,0.0001296,53.2168,144.7581,53.913,215.8756,-0.0094936,-0.00914477,0.0,0 STARLINK-5204,1 54101U 22136BC  23002.00001157 -.00914477  00000-0 -94936-2 0  9993,2 54101  53.2168 144.7581 0001296  53.9130 215.8756 15.66383077  1301,6747.401,91.932,370.14,368.392,0.0
54101.0,STARLINK-5204,PAYLOAD,2023-01-02 04:00:00,15.66053406,0.0001296,53.2171,143.9409,53.5878,76.4691,-0.0095372,-0.00907171,0.0,0 STARLINK-5204,1 54101U 22136BC  23002.16667824 -.00907171  00000-0 -95372-2 0  9997,2 54101  53.2171 143.9409 0001296  53.5878  76.4691 15.66053406 12075,6748.348000000001,91.951,371.087,369.338,0.0
54101.0,STARLINK-5204,PAYLOAD,2023-01-02 14:00:01,15.65251089,0.0001100999999999,53.2168,141.903,62.7555,257.1053,-0.010045,-0.00923381,0.0,0 STARLINK-5204,1 54101U 22136BC  23002.58334491 -.00923381  00000-0 -10045-1 0  9998,2 54101  53.2168 141.9030 0001101  62.7555 257.1053 15.65251089  1308,6750.654,91.998,373.262,371.775,0.0
